GLOBALSTAR M068 [-]     
1 32266U 07048D   23316.30478021 -.00000063  00000+0  22564-3 0  9999
2 32266  51.9889 278.9950 0000760 337.4716 170.3022 12.62771024743916
GLOBALSTAR M079 [+]     
1 37188U 10054A   23316.45718331 -.00000099  00000+0  28092-4 0  9997
2 37188  52.0017 113.7085 0001145 102.1157 297.7453 12.62269905602868
GLOBALSTAR M074 [+]     
1 37189U 10054B   23316.48238578 -.00000110  00000+0 -36000-4 0  9994
2 37189  51.9993 113.0436 0000935 105.1944 289.8128 12.62271907603470
GLOBALSTAR M076 [+]     
1 37190U 10054C   23316.59732909 -.00000095  00000+0  48458-4 0  9996
2 37190  52.0009 112.8134 0001337 123.7843 312.7889 12.62263824603205
GLOBALSTAR M077 [+]     
1 37191U 10054D   23316.57040822 -.00000106  00000+0 -11914-4 0  9992
2 37191  52.0073  69.5836 0000692 118.9691 254.4589 12.62266396603570
GLOBALSTAR M075 [+]     
1 37192U 10054E   23316.07897772 -.00000081  00000+0  12784-3 0  9998
2 37192  51.9928 156.9769 0001109  86.6733  91.9212 12.62267503602360
GLOBALSTAR M073 [+]     
1 37193U 10054F   23316.59651522 -.00000117  00000+0 -71336-4 0  9997
2 37193  52.0060  68.7694 0000776 116.5805 256.7963 12.62269217604268
GLOBALSTAR M083 [+]     
1 37739U 11033A   23316.45122052 -.00000085  00000+0  10330-3 0  9996
2 37739  51.9884  18.7405 0000514  82.1485 291.8147 12.62262804573267
GLOBALSTAR M088 [+]     
1 37740U 11033B   23316.37900507 -.00000101  00000+0  13839-4 0  9995
2 37740  51.9741 284.9442 0000804  54.8610 110.2187 12.62267444568792
GLOBALSTAR M091 [+]     
1 37741U 11033C   23316.55208097 -.00000090  00000+0  75665-4 0  9993
2 37741  51.9999 246.9303 0001076  58.8055 112.3651 12.62268338569604
GLOBALSTAR M085 [+]     
1 37742U 11033D   23316.45963435 -.00000065  00000+0  21765-3 0  9990
2 37742  51.9857 198.7665 0001182  69.2647 102.0777 12.62265100570100
GLOBALSTAR M081 [+]     
1 37743U 11033E   23316.40680110 -.00000062  00000+0  23466-3 0  9999
2 37743  51.9948 201.3546 0001282  76.6644  94.4727 12.62266679570247
GLOBALSTAR M089 [+]     
1 37744U 11033F   23316.28817469 -.00000069  00000+0  19593-3 0  9998
2 37744  51.9908 156.0527 0001031 103.2066  68.6442 12.62269578571076
GLOBALSTAR M084 [+]     
1 38040U 11080A   23316.50443824 -.00000085  00000+0  10501-3 0  9993
2 38040  52.0030  22.3731 0000546 143.5347 230.5203 12.62267527549088
GLOBALSTAR M080 [+]     
1 38041U 11080B   23316.47779559 -.00000084  00000+0  10906-3 0  9995
2 38041  52.0086  23.8562 0000760 143.5874 229.4302 12.62266028549207
GLOBALSTAR M082 [+]     
1 38042U 11080C   23316.26801509 -.00000080  00000+0  13092-3 0  9999
2 38042  52.0094 339.8793 0000688  19.6055  60.8623 12.62267883549883
GLOBALSTAR M092 [+]     
1 38043U 11080D   23316.47812324 -.00000113  00000+0 -53931-4 0  9995
2 38043  52.0091  69.5803 0000650 145.5400 290.8996 12.62262560548369
GLOBALSTAR M090 [+]     
1 38044U 11080E   23316.35886843 -.00000080  00000+0  13480-3 0  9996
2 38044  51.9902 334.1613 0000507  49.4193 324.9638 12.62263374550012
GLOBALSTAR M086 [+]     
1 38045U 11080F   23316.30600856 -.00000078  00000+0  14234-3 0  9995
2 38045  51.9914 334.8296 0001272 100.0660 272.9600 12.62264218549953
GLOBALSTAR M097 [+]     
1 39072U 13005A   23316.48799885 -.00000100  00000+0  18725-4 0  9991
2 39072  52.0048 248.2295 0001030  59.4865 300.6104 12.62272479497225
GLOBALSTAR M093 [+]     
1 39073U 13005B   23316.54069933 -.00000090  00000+0  79106-4 0  9991
2 39073  51.9810 242.3048 0001299  61.3764 298.7233 12.62268648497187
GLOBALSTAR M094 [+]     
1 39074U 13005C   23316.30319773 -.00000070  00000+0  18862-3 0  9995
2 39074  51.9936 156.8278 0001220  86.7746 273.3260 12.62269824498767
GLOBALSTAR M096 [+]     
1 39075U 13005D   23316.39560146 -.00000063  00000+0  22668-3 0  9998
2 39075  52.0065 204.6063 0001262  70.0965 290.0037 12.62266130497698
GLOBALSTAR M078 [+]     
1 39076U 13005E   23316.28985330 -.00000100  00000+0  18293-4 0  9995
2 39076  51.9877 290.2289 0001057 356.3510   3.7349 12.62263061496309
GLOBALSTAR M095 [+]     
1 39077U 13005F   23316.31638952 -.00000108  00000+0 -23799-4 0  9991
2 39077  51.9803 287.6353 0001087  27.4864 332.6060 12.62270523496161
GLOBALSTAR M087 [+]     
1 52888U 22064A   23316.51457070 -.00000087  00000+0  78533-4 0  9994
2 52888  51.9758 247.3850 0009309 167.8727 192.2400 13.37557701 68399
